CCSDS_OMM_VERS = 2.0
CREATION_DATE  = 
ORIGINATOR     = 

OBJECT_NAME    = DELTA 2 R/B(1)
OBJECT_ID      = 1990-008B
CENTER_NAME    = EARTH
REF_FRAME      = TEME
TIME_SYSTEM    = UTC
MEAN_ELEMENT_THEORY = SGP/SGP4

EPOCH          = 2026-02-19T18:41:53.042496
MEAN_MOTION    = 15.53406420
ECCENTRICITY   = .00891126
INCLINATION    = 35.6042
RA_OF_ASC_NODE = 292.1636
ARG_OF_PERICENTER = 91.5340
MEAN_ANOMALY   = 269.5605

EPHEMERIS_TYPE = 0
CLASSIFICATION_TYPE = U
NORAD_CAT_ID   = 20453
ELEMENT_SET_NO = 999
REV_AT_EPOCH   = 92334
BSTAR          = .76440041E-3
MEAN_MOTION_DOT = .59854E-3
MEAN_MOTION_DDOT = 0

CCSDS_OMM_VERS = 2.0
CREATION_DATE  = 
ORIGINATOR     = 

OBJECT_NAME    = COSMOS 2058
OBJECT_ID      = 1990-010A
CENTER_NAME    = EARTH
REF_FRAME      = TEME
TIME_SYSTEM    = UTC
MEAN_ELEMENT_THEORY = SGP/SGP4

EPOCH          = 2026-02-19T23:15:44.783712
MEAN_MOTION    = 15.11150483
ECCENTRICITY   = .00107739
INCLINATION    = 82.4661
RA_OF_ASC_NODE = 64.8851
ARG_OF_PERICENTER = 43.6104
MEAN_ANOMALY   = 316.5975

EPHEMERIS_TYPE = 0
CLASSIFICATION_TYPE = U
NORAD_CAT_ID   = 20465
ELEMENT_SET_NO = 999
REV_AT_EPOCH   = 93956
BSTAR          = .22511348E-3
MEAN_MOTION_DOT = .3807E-4
MEAN_MOTION_DDOT = 0

CCSDS_OMM_VERS = 2.0
CREATION_DATE  = 
ORIGINATOR     = 

OBJECT_NAME    = SL-14 R/B
OBJECT_ID      = 1990-010B
CENTER_NAME    = EARTH
REF_FRAME      = TEME
TIME_SYSTEM    = UTC
MEAN_ELEMENT_THEORY = SGP/SGP4

EPOCH          = 2026-02-19T14:40:01.303680
MEAN_MOTION    = 14.83552624
ECCENTRICITY   = .0019912
INCLINATION    = 82.5009
RA_OF_ASC_NODE = 284.3731
ARG_OF_PERICENTER = 4.0323
MEAN_ANOMALY   = 356.1048

EPHEMERIS_TYPE = 0
CLASSIFICATION_TYPE = U
NORAD_CAT_ID   = 20466
ELEMENT_SET_NO = 999
REV_AT_EPOCH   = 92580
BSTAR          = .42089E-4
MEAN_MOTION_DOT = .371E-5
MEAN_MOTION_DDOT = 0

CCSDS_OMM_VERS = 2.0
CREATION_DATE  = 
ORIGINATOR     = 

OBJECT_NAME    = SL-14 R/B
OBJECT_ID      = 1990-018B
CENTER_NAME    = EARTH
REF_FRAME      = TEME
TIME_SYSTEM    = UTC
MEAN_ELEMENT_THEORY = SGP/SGP4

EPOCH          = 2026-02-19T21:09:28.002240
MEAN_MOTION    = 14.82124092
ECCENTRICITY   = .00170912
INCLINATION    = 82.5179
RA_OF_ASC_NODE = 239.7374
ARG_OF_PERICENTER = 146.5344
MEAN_ANOMALY   = 213.6954

EPHEMERIS_TYPE = 0
CLASSIFICATION_TYPE = U
NORAD_CAT_ID   = 20511
ELEMENT_SET_NO = 999
REV_AT_EPOCH   = 91994
BSTAR          = .49579944E-4
MEAN_MOTION_DOT = .419E-5
MEAN_MOTION_DDOT = 0

CCSDS_OMM_VERS = 2.0
CREATION_DATE  = 
ORIGINATOR     = 

OBJECT_NAME    = HST
OBJECT_ID      = 1990-037B
CENTER_NAME    = EARTH
REF_FRAME      = TEME
TIME_SYSTEM    = UTC
MEAN_ELEMENT_THEORY = SGP/SGP4

EPOCH          = 2026-02-19T16:06:04.453632
MEAN_MOTION    = 15.29178060
ECCENTRICITY   = .0001064
INCLINATION    = 28.4684
RA_OF_ASC_NODE = 162.8909
ARG_OF_PERICENTER = 272.0901
MEAN_ANOMALY   = 87.9573

EPHEMERIS_TYPE = 0
CLASSIFICATION_TYPE = U
NORAD_CAT_ID   = 20580
ELEMENT_SET_NO = 999
REV_AT_EPOCH   = 77055
BSTAR          = .23506781E-3
MEAN_MOTION_DOT = .7079E-4
MEAN_MOTION_DDOT = 0

CCSDS_OMM_VERS = 2.0
CREATION_DATE  = 
ORIGINATOR     = 

OBJECT_NAME    = SL-16 R/B
OBJECT_ID      = 1990-046B
CENTER_NAME    = EARTH
REF_FRAME      = TEME
TIME_SYSTEM    = UTC
MEAN_ELEMENT_THEORY = SGP/SGP4

EPOCH          = 2026-02-19T21:11:21.143904
MEAN_MOTION    = 14.15013615
ECCENTRICITY   = .00154713
INCLINATION    = 71.0018
RA_OF_ASC_NODE = 335.3102
ARG_OF_PERICENTER = 324.3007
MEAN_ANOMALY   = 35.7079

EPHEMERIS_TYPE = 0
CLASSIFICATION_TYPE = U
NORAD_CAT_ID   = 20625
ELEMENT_SET_NO = 999
REV_AT_EPOCH   = 84587
BSTAR          = .13609632E-3
MEAN_MOTION_DOT = .216E-5
MEAN_MOTION_DDOT = 0

CCSDS_OMM_VERS = 2.0
CREATION_DATE  = 
ORIGINATOR     = 

OBJECT_NAME    = COSMOS 2084
OBJECT_ID      = 1990-055A
CENTER_NAME    = EARTH
REF_FRAME      = TEME
TIME_SYSTEM    = UTC
MEAN_ELEMENT_THEORY = SGP/SGP4

EPOCH          = 2026-02-19T22:07:51.799584
MEAN_MOTION    = 15.05526723
ECCENTRICITY   = .00198138
INCLINATION    = 62.7905
RA_OF_ASC_NODE = 36.1693
ARG_OF_PERICENTER = 186.0320
MEAN_ANOMALY   = 174.0545

EPHEMERIS_TYPE = 0
CLASSIFICATION_TYPE = U
NORAD_CAT_ID   = 20663
ELEMENT_SET_NO = 999
REV_AT_EPOCH   = 93364
BSTAR          = .17654994E-3
MEAN_MOTION_DOT = .236E-4
MEAN_MOTION_DDOT = 0

CCSDS_OMM_VERS = 2.0
CREATION_DATE  = 
ORIGINATOR     = 

OBJECT_NAME    = SL-6 R/B(2)
OBJECT_ID      = 1990-055D
CENTER_NAME    = EARTH
REF_FRAME      = TEME
TIME_SYSTEM    = UTC
MEAN_ELEMENT_THEORY = SGP/SGP4

EPOCH          = 2026-02-19T21:08:09.106944
MEAN_MOTION    = 15.03503101
ECCENTRICITY   = .00220877
INCLINATION    = 62.7839
RA_OF_ASC_NODE = 314.4099
ARG_OF_PERICENTER = 342.3192
MEAN_ANOMALY   = 17.7136

EPHEMERIS_TYPE = 0
CLASSIFICATION_TYPE = U
NORAD_CAT_ID   = 20666
ELEMENT_SET_NO = 999
REV_AT_EPOCH   = 93551
BSTAR          = .15737005E-3
MEAN_MOTION_DOT = .1966E-4
MEAN_MOTION_DDOT = 0

CCSDS_OMM_VERS = 2.0
CREATION_DATE  = 
ORIGINATOR     = 

OBJECT_NAME    = SL-8 R/B
OBJECT_ID      = 1990-078B
CENTER_NAME    = EARTH
REF_FRAME      = TEME
TIME_SYSTEM    = UTC
MEAN_ELEMENT_THEORY = SGP/SGP4

EPOCH          = 2026-02-19T15:07:21.528192
MEAN_MOTION    = 14.88433880
ECCENTRICITY   = .03658705
INCLINATION    = 82.9001
RA_OF_ASC_NODE = 267.5459
ARG_OF_PERICENTER = 74.5446
MEAN_ANOMALY   = 289.5863

EPHEMERIS_TYPE = 0
CLASSIFICATION_TYPE = U
NORAD_CAT_ID   = 20775
ELEMENT_SET_NO = 999
REV_AT_EPOCH   = 80661
BSTAR          = .38272804E-3
MEAN_MOTION_DOT = .13053E-3
MEAN_MOTION_DDOT = 0

CCSDS_OMM_VERS = 2.0
CREATION_DATE  = 
ORIGINATOR     = 

OBJECT_NAME    = SL-8 R/B
OBJECT_ID      = 1991-006B
CENTER_NAME    = EARTH
REF_FRAME      = TEME
TIME_SYSTEM    = UTC
MEAN_ELEMENT_THEORY = SGP/SGP4

EPOCH          = 2026-02-19T21:53:47.033952
MEAN_MOTION    = 13.77492419
ECCENTRICITY   = .00237388
INCLINATION    = 82.9451
RA_OF_ASC_NODE = 183.2614
ARG_OF_PERICENTER = 85.8529
MEAN_ANOMALY   = 31.6020

EPHEMERIS_TYPE = 0
CLASSIFICATION_TYPE = U
NORAD_CAT_ID   = 21088
ELEMENT_SET_NO = 999
REV_AT_EPOCH   = 76162
BSTAR          = .16709024E-4
MEAN_MOTION_DOT = .32E-6
MEAN_MOTION_DDOT = 0

CCSDS_OMM_VERS = 2.0
CREATION_DATE  = 
ORIGINATOR     = 

OBJECT_NAME    = OKEAN-3
OBJECT_ID      = 1991-039A
CENTER_NAME    = EARTH
REF_FRAME      = TEME
TIME_SYSTEM    = UTC
MEAN_ELEMENT_THEORY = SGP/SGP4

EPOCH          = 2026-02-19T20:34:35.093568
MEAN_MOTION    = 15.04664937
ECCENTRICITY   = .00154583
INCLINATION    = 82.5210
RA_OF_ASC_NODE = 354.1140
ARG_OF_PERICENTER = 36.3465
MEAN_ANOMALY   = 323.8809

EPHEMERIS_TYPE = 0
CLASSIFICATION_TYPE = U
NORAD_CAT_ID   = 21397
ELEMENT_SET_NO = 999
REV_AT_EPOCH   = 86235
BSTAR          = .26354819E-3
MEAN_MOTION_DOT = .3742E-4
MEAN_MOTION_DDOT = 0

CCSDS_OMM_VERS = 2.0
CREATION_DATE  = 
ORIGINATOR     = 

OBJECT_NAME    = COSMOS 2151
OBJECT_ID      = 1991-042A
CENTER_NAME    = EARTH
REF_FRAME      = TEME
TIME_SYSTEM    = UTC
MEAN_ELEMENT_THEORY = SGP/SGP4

EPOCH          = 2026-02-19T20:57:05.478048
MEAN_MOTION    = 15.00032915
ECCENTRICITY   = .00139623
INCLINATION    = 82.4947
RA_OF_ASC_NODE = 100.8654
ARG_OF_PERICENTER = 117.0503
MEAN_ANOMALY   = 243.2148

EPHEMERIS_TYPE = 0
CLASSIFICATION_TYPE = U
NORAD_CAT_ID   = 21422
ELEMENT_SET_NO = 999
REV_AT_EPOCH   = 86052
BSTAR          = .13178837E-3
MEAN_MOTION_DOT = .167E-4
MEAN_MOTION_DDOT = 0

