DELTA 2 R/B(1)          
1 20453U 90008B   26050.77908614  .00059854  00000+0  76440-3 0  9990
2 20453  35.6042 292.1636 0089112  91.5340 269.5605 15.53406420923342
COSMOS 2058             
1 20465U 90010A   26050.96926833  .00003807  00000+0  22511-3 0  9997
2 20465  82.4661  64.8851 0010773  43.6104 316.5975 15.11150483939561
SL-14 R/B               
1 20466U 90010B   26050.61112620  .00000371  00000+0  42089-4 0  9997
2 20466  82.5009 284.3731 0019912   4.0323 356.1048 14.83552624925807
SL-14 R/B               
1 20511U 90018B   26050.88157410  .00000419  00000+0  49580-4 0  9997
2 20511  82.5179 239.7374 0017091 146.5344 213.6954 14.82124092919948
HST                     
1 20580U 90037B   26050.67088488  .00007079  00000+0  23507-3 0  9998
2 20580  28.4684 162.8909 0001064 272.0901  87.9573 15.29178060770558
SL-16 R/B               
1 20625U 90046B   26050.88288361  .00000216  00000+0  13610-3 0  9993
2 20625  71.0018 335.3102 0015471 324.3007  35.7079 14.15013615845878
COSMOS 2084             
1 20663U 90055A   26050.92212731  .00002360  00000+0  17655-3 0  9993
2 20663  62.7905  36.1693 0019813 186.0320 174.0545 15.05526723933645
SL-6 R/B(2)             
1 20666U 90055D   26050.88066096  .00001966  00000+0  15737-3 0  9992
2 20666  62.7839 314.4099 0022087 342.3192  17.7136 15.03503101935517
SL-8 R/B                
1 20775U 90078B   26050.63011028  .00013053  00000+0  38273-3 0  9996
2 20775  82.9001 267.5459 0365870  74.5446 289.5863 14.88433880806619
SL-8 R/B                
1 21088U 91006B   26050.91234993  .00000032  00000+0  16709-4 0  9999
2 21088  82.9451 183.2614 0023738  85.8529  31.6020 13.77492419761626
OKEAN-3                 
1 21397U 91039A   26050.85735062  .00003742  00000+0  26355-3 0  9992
2 21397  82.5210 354.1140 0015458  36.3465 323.8809 15.04664937862352
COSMOS 2151             
1 21422U 91042A   26050.87298007  .00001670  00000+0  13179-3 0  9998
2 21422  82.4947 100.8654 0013962 117.0503 243.2148 15.00032915860520
